OBJECT_NAME,OBJECT_ID,EPOCH,MEAN_MOTION,ECCENTRICITY,INCLINATION,RA_OF_ASC_NODE,ARG_OF_PERICENTER,MEAN_ANOMALY,EPHEMERIS_TYPE,CLASSIFICATION_TYPE,NORAD_CAT_ID,ELEMENT_SET_NO,REV_AT_EPOCH,BSTAR,MEAN_MOTION_DOT,MEAN_MOTION_DDOT
COSMOS 2251 DEB,1993-036HP,2024-12-31T20:37:27.597216,13.20209473,0.0548257,73.8807,157.4435,352.8609,159.8307,0,U,34028,999,76442,7.98E-04,6.87E-06,0
COSMOS 2251 DEB,1993-036HS,2024-12-31T15:22:52.309344,14.5485849,0.0028013,74.0163,74.3623,281.37,229.5167,0,U,34031,999,83523,3.15E-03,1.36E-04,0
COSMOS 2251 DEB,1993-036HT,2024-12-31T08:40:51.858912,15.16671262,0.001382,74.0058,39.0442,285.9818,85.2797,0,U,34032,999,83676,1.38E-02,2.82E-03,0
COSMOS 2251 DEB,1993-036HU,2024-12-31T15:21:25.982784,15.13015484,0.0008239,73.9791,78.9274,351.5146,159.0589,0,U,34033,999,83475,1.38E-02,2.53E-03,0
COSMOS 2251 DEB,1993-036HW,2024-12-31T18:14:04.250688,14.46661031,0.0044934,74.0677,277.2132,9.617,21.318,0,U,34035,999,82953,4.27E-03,1.56E-04,0
COSMOS 2251 DEB,1993-036HX,2024-12-31T11:25:55.354368,14.71738253,0.0023365,74.0316,114.6556,266.8908,92.9591,0,U,34036,999,83438,7.34E-03,4.63E-04,0
COSMOS 2251 DEB,1993-036HY,2024-12-31T17:05:07.988928,14.33204714,0.005282,74.0534,323.0556,99.707,261.0053,0,U,34037,999,82757,1.82E-03,5.06E-05,0
COSMOS 2251 DEB,1993-036JB,2024-12-31T12:32:56.158944,13.6685083,0.0345416,73.9596,277.3267,299.5613,57.1483,0,U,34040,999,78866,3.74E-03,4.69E-05,0
COSMOS 2251 DEB,1993-036JG,2024-12-31T09:02:15.805248,14.33799523,0.0025869,74.0372,224.4613,32.8575,140.9836,0,U,34045,999,83068,2.45E-04,6.58E-06,0
COSMOS 2251 DEB,1993-036JH,2024-12-31T02:33:43.930080,14.42306029,0.0081557,74.0409,295.6303,107.1047,265.6328,0,U,34046,999,82821,2.42E-03,8.30E-05,0
COSMOS 2251 DEB,1993-036JM,2024-12-31T15:05:19.394880,13.95134098,0.021828,74.0878,243.283,31.1295,350.7336,0,U,34050,999,80603,2.42E-03,3.96E-05,0
COSMOS 2251 DEB,1993-036JQ,2024-12-31T15:28:18.585120,13.48569462,0.0427375,73.8445,79.6719,285.9962,69.4471,0,U,34053,999,78017,2.07E-03,2.24E-05,0
COSMOS 2251 DEB,1993-036JR,2024-12-31T13:21:04.504896,15.02642409,0.0015404,74.0174,212.956,62.0118,326.3493,0,U,34054,999,84305,6.14E-03,8.30E-04,0
COSMOS 2251 DEB,1993-036JT,2024-12-31T08:20:35.882592,14.17455631,0.0128051,74.0618,334.2979,107.6878,55.846,0,U,34056,999,81497,4.21E-03,9.25E-05,0
COSMOS 2251 DEB,1993-036JU,2024-12-31T16:51:46.462176,14.97178615,0.0018909,74.0185,261.1186,115.2988,276.1738,0,U,34057,999,84110,9.63E-03,1.14E-03,0
COSMOS 2251 DEB,1993-036JV,2024-12-30T19:22:03.886752,13.55509652,0.0375587,73.9353,20.241,81.0781,88.1393,0,U,34058,999,78440,1.11E-03,1.19E-05,0
COSMOS 2251 DEB,1993-036JW,2024-12-31T07:51:38.225664,14.49752512,0.0020732,74.041,118.2359,285.4991,105.2195,0,U,34059,999,83433,2.58E-03,9.96E-05,0
COSMOS 2251 DEB,1993-036JY,2024-12-31T06:30:35.409024,14.39269232,0.002075,74.0381,183.3148,347.2732,186.8676,0,U,34061,999,83193,1.04E-03,3.20E-05,0
COSMOS 2251 DEB,1993-036JZ,2024-12-30T23:22:07.081248,14.6646482,0.0095486,74.0343,93.4104,263.8323,211.3076,0,U,34062,999,83491,5.63E-03,3.35E-04,0
COSMOS 2251 DEB,1993-036KB,2024-12-31T20:57:21.081024,14.40630364,0.0022306,74.0313,191.7224,345.3379,79.2991,0,U,34064,999,83158,1.58E-03,5.03E-05,0
COSMOS 2251 DEB,1993-036KC,2024-12-31T17:21:57.917664,14.37532808,0.001659,74.0343,175.2331,358.3564,12.9929,0,U,34065,999,83232,5.58E-04,1.65E-05,0
COSMOS 2251 DEB,1993-036KH,2024-12-31T10:31:15.084192,14.6504223,0.0029616,74.0058,70.3651,276.0335,95.0947,0,U,34070,999,83518,5.01E-03,2.71E-04,0
COSMOS 2251 DEB,1993-036KK,2024-12-30T09:02:56.429664,14.48178842,0.0049023,74.0624,338.0125,62.8601,87.2713,0,U,34114,999,82757,5.75E-03,2.18E-04,0
COSMOS 2251 DEB,1993-036KL,2024-12-31T19:14:20.532192,14.71818691,0.0034712,74.0078,200.1555,113.1285,247.3551,0,U,34115,999,84308,2.79E-03,1.76E-04,0
COSMOS 2251 DEB,1993-036KM,2024-12-31T14:02:50.972352,14.49787645,0.0013863,74.0442,114.2009,281.9655,88.8868,0,U,34116,999,83464,2.76E-03,1.06E-04,0
COSMOS 2251 DEB,1993-036KN,2024-12-31T09:41:25.550016,14.38038031,0.0056742,74.0407,262.7471,66.2324,294.4767,0,U,34117,999,83141,1.80E-03,5.54E-05,0
COSMOS 2251 DEB,1993-036KP,2024-12-31T21:07:52.150944,14.77984613,0.008455,73.957,220.4854,134.2406,237.8494,0,U,34118,999,84039,3.97E-03,3.05E-04,0
COSMOS 2251 DEB,1993-036KR,2024-12-30T17:03:46.901664,13.9809084,0.0184552,73.9926,97.0875,0.153,152.1647,0,U,34120,999,81129,7.75E-04,1.25E-05,0
COSMOS 2251 DEB,1993-036KS,2024-12-31T09:45:10.787904,13.89757932,0.0245819,73.996,329.6593,249.7914,283.9095,0,U,34121,999,80309,3.59E-03,5.59E-05,0
COSMOS 2251 DEB,1993-036KT,2024-12-31T10:45:07.156800,14.58647949,0.0092641,74.0397,61.8888,45.0487,327.0727,0,U,34122,999,83623,2.40E-03,1.19E-04,0
