COSMOS 2251 DEB         
1 34028U 93036HP  24366.85934719  .00000687  00000+0  79833-3 0  9998
2 34028  73.8807 157.4435 0548257 352.8609 159.8307 13.20209473764422
COSMOS 2251 DEB         
1 34031U 93036HS  24366.64088321  .00013573  00000+0  31450-2 0  9998
2 34031  74.0163  74.3623 0028013 281.3700 229.5167 14.54858490835235
COSMOS 2251 DEB         
1 34032U 93036HT  24366.36171133  .00281645  00000+0  13808-1 0  9995
2 34032  74.0058  39.0442 0013820 285.9818  85.2797 15.16671262836760
COSMOS 2251 DEB         
1 34033U 93036HU  24366.63988406  .00252801  00000+0  13807-1 0  9996
2 34033  73.9791  78.9274 0008239 351.5146 159.0589 15.13015484834751
COSMOS 2251 DEB         
1 34035U 93036HW  24366.75977142  .00015628  00000+0  42707-2 0  9992
2 34035  74.0677 277.2132 0044934   9.6170  21.3180 14.46661031829533
COSMOS 2251 DEB         
1 34036U 93036HX  24366.47633512  .00046263  00000+0  73368-2 0  9998
2 34036  74.0316 114.6556 0023365 266.8908  92.9591 14.71738253834387
COSMOS 2251 DEB         
1 34037U 93036HY  24366.71189802  .00005057  00000+0  18195-2 0  9997
2 34037  74.0534 323.0556 0052820  99.7070 261.0053 14.33204714827570
COSMOS 2251 DEB         
1 34040U 93036JB  24366.52287221  .00004690  00000+0  37430-2 0  9999
2 34040  73.9596 277.3267 0345416 299.5613  57.1483 13.66850830788667
COSMOS 2251 DEB         
1 34045U 93036JG  24366.37657182  .00000658  00000+0  24517-3 0  9997
2 34045  74.0372 224.4613 0025869  32.8575 140.9836 14.33799523830685
COSMOS 2251 DEB         
1 34046U 93036JH  24366.10675845  .00008296  00000+0  24196-2 0  9993
2 34046  74.0409 295.6303 0081557 107.1047 265.6328 14.42306029828211
COSMOS 2251 DEB         
1 34050U 93036JM  24366.62869670  .00003955  00000+0  24160-2 0  9994
2 34050  74.0878 243.2830 0218280  31.1295 350.7336 13.95134098806039
COSMOS 2251 DEB         
1 34053U 93036JQ  24366.64465955  .00002238  00000+0  20719-2 0  9996
2 34053  73.8445  79.6719 0427375 285.9962  69.4471 13.48569462780178
COSMOS 2251 DEB         
1 34054U 93036JR  24366.55630214  .00083001  00000+0  61404-2 0  9992
2 34054  74.0174 212.9560 0015404  62.0118 326.3493 15.02642409843051
COSMOS 2251 DEB         
1 34056U 93036JT  24366.34763753  .00009245  00000+0  42138-2 0  9997
2 34056  74.0618 334.2979 0128051 107.6878  55.8460 14.17455631814971
COSMOS 2251 DEB         
1 34057U 93036JU  24366.70262109  .00113527  00000+0  96297-2 0  9991
2 34057  74.0185 261.1186 0018909 115.2988 276.1738 14.97178615841109
COSMOS 2251 DEB         
1 34058U 93036JV  24365.80698943  .00001191  00000+0  11080-2 0  9991
2 34058  73.9353  20.2410 0375587  81.0781  88.1393 13.55509652784407
COSMOS 2251 DEB         
1 34059U 93036JW  24366.32752576  .00009959  00000+0  25812-2 0  9991
2 34059  74.0410 118.2359 0020732 285.4991 105.2195 14.49752512834334
COSMOS 2251 DEB         
1 34061U 93036JY  24366.27124316  .00003197  00000+0  10358-2 0  9990
2 34061  74.0381 183.3148 0020750 347.2732 186.8676 14.39269232831936
COSMOS 2251 DEB         
1 34062U 93036JZ  24365.97369307  .00033513  00000+0  56332-2 0  9995
2 34062  74.0343  93.4104 0095486 263.8323 211.3076 14.66464820834914
COSMOS 2251 DEB         
1 34064U 93036KB  24366.87316066  .00005031  00000+0  15795-2 0  9993
2 34064  74.0313 191.7224 0022306 345.3379  79.2991 14.40630364831583
COSMOS 2251 DEB         
1 34065U 93036KC  24366.72358701  .00001649  00000+0  55803-3 0  9996
2 34065  74.0343 175.2331 0016590 358.3564  12.9929 14.37532808832329
COSMOS 2251 DEB         
1 34070U 93036KH  24366.43836903  .00027141  00000+0  50130-2 0  9997
2 34070  74.0058  70.3651 0029616 276.0335  95.0947 14.65042230835188
COSMOS 2251 DEB         
1 34114U 93036KK  24365.37704201  .00021804  00000+0  57497-2 0  9996
2 34114  74.0624 338.0125 0049023  62.8601  87.2713 14.48178842827575
COSMOS 2251 DEB         
1 34115U 93036KL  24366.80162653  .00017590  00000+0  27851-2 0  9993
2 34115  74.0078 200.1555 0034712 113.1285 247.3551 14.71818691843084
COSMOS 2251 DEB         
1 34116U 93036KM  24366.58531218  .00010636  00000+0  27579-2 0  9997
2 34116  74.0442 114.2009 0013863 281.9655  88.8868 14.49787645834648
COSMOS 2251 DEB         
1 34117U 93036KN  24366.40376794  .00005538  00000+0  18027-2 0  9998
2 34117  74.0407 262.7471 0056742  66.2324 294.4767 14.38038031831413
COSMOS 2251 DEB         
1 34118U 93036KP  24366.88046471  .00030493  00000+0  39693-2 0  9997
2 34118  73.9570 220.4854 0084550 134.2406 237.8494 14.77984613840398
COSMOS 2251 DEB         
1 34120U 93036KR  24365.71095951  .00001250  00000+0  77526-3 0  9995
2 34120  73.9926  97.0875 0184552   0.1530 152.1647 13.98090840811297
COSMOS 2251 DEB         
1 34121U 93036KS  24366.40637486  .00005592  00000+0  35862-2 0  9997
2 34121  73.9960 329.6593 0245819 249.7914 283.9095 13.89757932803099
COSMOS 2251 DEB         
1 34122U 93036KT  24366.44799950  .00011880  00000+0  24042-2 0  9992
2 34122  74.0397  61.8888 0092641  45.0487 327.0727 14.58647949836230
